{
"type": "FeatureCollection",
"name": "thai-border",
"crs": { "type": "name", "properties": { "name": "urn:ogc:def:crs:OGC:1.3:CRS84" } },
"features": [
{ "type": "Feature", "properties": { "id": 1 }, "geometry": { "type": "MultiLineString", "coordinates": [ [ [ 98.545480538791594, 16.638493371571105 ], [ 98.549255751167394, 16.636607164019704 ], [ 98.550532518080544, 16.635688312627035 ], [ 98.551544324575772, 16.634512875242958 ], [ 98.552448477106807, 16.633951614018567 ], [ 98.553936105642833, 16.633698809961732 ], [ 98.55489040324828, 16.634417674092166 ], [ 98.556056789794852, 16.635290591028028 ], [ 98.556853304906298, 16.635343494008353 ], [ 98.557861786758892, 16.63560165010642 ], [ 98.55865900653221, 16.635347340764866 ], [ 98.559191966891817, 16.634529254572705 ], [ 98.55956641540844, 16.633352422447167 ], [ 98.55983464316202, 16.632175364256696 ], [ 98.560261957226871, 16.631101044858934 ], [ 98.560635109987331, 16.630487420507023 ], [ 98.561007794528891, 16.630078599190252 ], [ 98.561273913673517, 16.62982315563038 ], [ 98.561805452422362, 16.629619473164055 ], [ 98.562230311032337, 16.629620369261822 ], [ 98.562920706329365, 16.629621823566897 ], [ 98.5636111016954, 16.629623275576773 ], [ 98.563982159098117, 16.629931262303614 ], [ 98.564565301209356, 16.630393296870704 ], [ 98.565200977073019, 16.631111445925438 ], [ 98.566102427691249, 16.631727746224829 ], [ 98.566792141286413, 16.632036393712479 ], [ 98.567747627077168, 16.632243189975629 ], [ 98.56875668083417, 16.63224528823616 ], [ 98.569765506442579, 16.632349783588896 ], [ 98.570457165777, 16.631788002029371 ], [ 98.570884306511658, 16.63076486032854 ], [ 98.570886014053499, 16.629996845105474 ], [ 98.570887607677847, 16.629280030845948 ], [ 98.570942535936695, 16.62846092421784 ], [ 98.570997691214771, 16.627539415441273 ], [ 98.571159286456947, 16.626515723823005 ], [ 98.571692055718003, 16.625748804071232 ], [ 98.571959403610009, 16.624930134717989 ], [ 98.572332393883897, 16.624367688883137 ], [ 98.572706061788352, 16.623498035936283 ], [ 98.573185371353631, 16.622884605756109 ], [ 98.573611346356131, 16.622373467515228 ], [ 98.573878907097495, 16.621452392972156 ], [ 98.573879810906774, 16.621042784332829 ], [ 98.573509884682494, 16.620222804244097 ], [ 98.573245718192439, 16.619607846020447 ], [ 98.572344639705207, 16.618837973555383 ], [ 98.571708408326714, 16.61837585124362 ], [ 98.570594356317784, 16.617861538814317 ], [ 98.569904572387031, 16.617604105649114 ], [ 98.569374558916536, 16.617142196170569 ], [ 98.569374558916536, 16.617142196170569 ], [ 98.569374558916536, 16.617142196170569 ], [ 98.569374444775676, 16.617193397240296 ], [ 98.569374444775676, 16.617193397240296 ] ] ] } }
]
}
